[Satellite]
VERSION=1.1
NAME=THAICOM 8
NICKNAME=THAICOM 8
TLE1=1 41552U 16031A   17184.99806730 -.00000129  00000-0  00000-0 0  9994
TLE2=2 41552   0.0602  42.3373 0003912  16.3627 301.3294  1.00273224  3948
